#aV2014  1 19  0  0  0.00000000     288 DD+AD WGS84 FIT  NGA
## 1776      0.00000000   300.00000000 56676 0.0000000000000
+   32     1  2  3  4  5  6  7  8  9 10 11 12 13 14 15 16 17
+         18 19 20 21 22 23 24 25 26 27 28 29 30 31 32  0  0
+          0  0  0  0  0  0  0  0  0  0  0  0  0  0  0  0  0
+          0  0  0  0  0  0  0  0  0  0  0  0  0  0  0  0  0
+          0  0  0  0  0  0  0  0  0  0  0  0  0  0  0  0  0
++         2  2  2  2  2  2  2  2  2  2  2  2  2  2  2  2  2
++         2  2  2  2  2  2  2  2  2  2  2  2  2  2  2  0  0
++         0  0  0  0  0  0  0  0  0  0  0  0  0  0  0  0  0
++         0  0  0  0  0  0  0  0  0  0  0  0  0  0  0  0  0
++         0  0  0  0  0  0  0  0  0  0  0  0  0  0  0  0  0
%c cc cc ccc ccc cccc cccc cccc cccc ccccc ccccc ccccc ccccc
%c cc cc ccc ccc cccc cccc cccc cccc ccccc ccccc ccccc ccccc
%f  0.0000000  0.000000000  0.00000000000  0.000000000000000
%f  0.0000000  0.000000000  0.00000000000  0.000000000000000
%i    0    0    0    0      0      0      0      0         0
%i    0    0    0    0      0      0      0      0         0
/*      NGA, ST. LOUIS,MO.                                  
/*   EPHEMERIS COMPUTED FROM  1 DAYS OF DATA                
/*   EPOCHA SMOOTHER                                       
/* CCCCCCCCCCCCCCCCCCCCCCCCCCCCCCCCCCCCCCCCCCCCCCCCCCCCCCCCC
*  2014  1 19 22 25  0.00000000
P  1 -19457.574342  -7926.793847  16285.536482    101.568372                    
V  1 -10401.009004 -17983.017267 -21019.307799      0.024365                    
P  2  14245.664317  22605.334300   2775.063278    473.733361                    
V  2  -4313.261077   -760.291433  30689.169836      0.021891                    
P  3 -16329.138646 -10273.896075 -18865.697309    314.684221                    
V  3  21849.859093  -6936.382392 -15416.212158      0.051106                    
P  4   1983.756895  21543.856901  14935.631661      4.942499                    
V  4 -13706.702857 -14372.668858  22343.234871      0.002335                    
P  5   6890.113313  17442.805976 -18789.841854   -391.777859                    
V  5 -11439.527555  21015.896169  15505.652818      0.013279                    
P  6  -8537.811733 -13984.228513 -20916.492997    242.422465                    
V  6  26240.422621  -4807.878052  -7080.668808      0.152380                    
P  7 -13303.988454   6841.231849 -21890.864463    304.577951                    
V  7 -15576.170385 -23150.612357   1912.560618      0.041624                    
P  8  -5535.807734  16501.878855 -19713.477401     11.418281                    
V  8 -13086.662895 -21872.222130 -15109.869650      0.002186                    
P  9  -3839.091044  17633.290700 -19963.444733    299.268621                    
V  9 -14687.196668 -19249.285179 -14718.797702      0.027431                    
P 10  -7738.695191  24715.723202  -5081.018077   -110.727246                    
V 10  -5933.278055   3964.134753  30711.387911     -0.016392                    
P 11 -23277.568329 -11113.555680   6313.071084   -457.018902                    
V 11  -4127.146013  -8933.741181 -28536.015634     -0.033282                    
P 12  15514.213500    799.405410  21459.348460    181.242702                    
V 12 -11826.198795  24648.097103   7821.834220      0.023137                    
P 13 -24544.945800   5605.538529  -8820.833006     38.195732                    
V 13 -10922.137219  -2054.993444  29396.954101     -0.038195                    
P 14  10403.447285 -13987.982627  20209.681977    204.068434                    
V 14  25215.045271    566.928599 -12860.633024     -0.013158                    
P 15  23910.889819   4983.255565 -10824.862746   -158.527911                    
V 15 -13161.922895   4506.393601 -26827.503442     -0.020369                    
P 16  -5668.250190 -16930.197121 -19572.777320   -234.766228                    
V 16  12603.018167 -21430.664607  15246.862180      0.013930                    
P 17  -9296.452436  14515.819707  20386.091485    -60.740544                    
V 17 -25407.946584    212.508088 -12112.689491     -0.034696                    
P 18  16379.820000 -17884.598690 -10001.726218    297.082645                    
V 18  -2101.282356  13869.952161 -27424.850237      0.021186                    
P 19 -23108.905547  -7776.914450 -11169.310723   -433.327609                    
V 19  13840.986808  -1935.129723 -27168.609552     -0.025138                    
P 20 -17121.062132   2730.536889  19910.785637    154.394802                    
V 20   8142.760371 -24579.177066  10349.970582      0.032118                    
P 21  12685.870788  -8970.639813 -20933.460192   -339.163049                    
V 21  16525.875851  22764.071728   -228.006606     -0.021675                    
P 22  10531.646279 -24288.290845    666.372641    207.913946                    
V 22   4007.090444   1140.620209 -30988.655688      0.023695                    
P 23 -26612.441526    -46.319213   3087.857366     11.235969                    
V 23   3536.895712  -2974.735903  31004.727525     -0.032659                    
P 24  19882.722839  12174.391715  12792.576137    -21.843594                    
V 24   7637.923039  14506.287538 -25577.964357     -0.006431                    
P 25  17318.063203 -12818.678519  15396.164266     10.044308                    
V 25  -6537.450369  18634.252560  22899.539828      0.022093                    
P 26  13738.180765  13134.541357 -19335.140813    189.333873                    
V 26 -23039.068524    724.543473 -16133.036194     -0.106775                    
P 27 -11853.140982 -12869.040521 -19995.632399    -15.287394                    
V 27  25154.235828  -3470.086049 -12649.111709     -0.018747                    
P 28 -13117.107349  22937.950387  -1046.117919    325.938819                    
V 28   -950.068536  -2861.723673 -32358.806369      0.028600                    
P 29  25591.831264  -4641.600952  -5235.777578    504.563464                    
V 29   6802.372888   2269.016034  31020.929101      0.028674                    
P 30   6101.618126 -24635.338149  -7613.668247   -155.662440                    
V 30   6092.031723  -7610.527727  30319.930646      0.007692                    
P 31  -4310.439852 -22543.748219  13258.393342    332.508758                    
V 31  10844.615344  12781.842006  25876.896202      0.003757                    
P 32 -11575.378701 -10808.673571  21440.876335   -499.251121                    
V 32  13538.341879 -23421.430740  -3973.402891      0.057832                    
EOF
